start=new Date('2022-02-25T00:00:00.000Z').valueOf();
sats=[{"DECAY_DATE":null,"SEMIMAJOR_AXIS":"6925.352","OBJECT_NAME":"STARLINK-2139","APOAPSIS":"548.195","OBJECT_TYPE":"PAYLOAD","COUNTRY_CODE":"US","CENTER_NAME":"EARTH","CLASSIFICATION_TYPE":"U","BSTAR":"0.00033617000000","PERIAPSIS":"546.239","FILE":"3320325","PERIOD":"95.592","SITE":"AFETR","TLE_LINE1":"1 48554U 21041B   22055.85587211  .00004729  00000-0  33617-3 0  9990","MEAN_MOTION":"15.06398928","RCS_SIZE":"LARGE","EPHEMERIS_TYPE":"0","GP_ID":"196901043","MEAN_MOTION_DOT":"0.00004729","EPOCH":"2022-02-24T20:32:27.350304","REV_AT_EPOCH":"4306","TIME_SYSTEM":"UTC","MEAN_MOTION_DDOT":"0.0000000000000","TLE_LINE2":"2 48554  53.0534 267.9217 0001412  87.3887 272.7264 15.06398928 43065","REF_FRAME":"TEME","OBJECT_ID":"2021-041B","ARG_OF_PERICENTER":"87.3887","MEAN_ANOMALY":"272.7264","ECCENTRICITY":"0.00014120","RA_OF_ASC_NODE":"267.9217","MEAN_ELEMENT_THEORY":"SGP4","NORAD_CAT_ID":"48554","INCLINATION":"53.0534","ELEMENT_SET_NO":"999","LAUNCH_DATE":"2021-05-15"},{"EPHEMERIS_TYPE":"0","TLE_LINE1":"1 48555U 21041C   22055.88441707  .00000755  00000-0  69562-4 0  9997","RCS_SIZE":"LARGE","MEAN_MOTION":"15.06398438","GP_ID":"196902294","TIME_SYSTEM":"UTC","REV_AT_EPOCH":"4292","OBJECT_ID":"2021-041C","TLE_LINE2":"2 48555  53.0529 277.7961 0001549  71.1760 288.9396 15.06398438 42922","MEAN_MOTION_DDOT":"0.0000000000000","ARG_OF_PERICENTER":"71.1760","REF_FRAME":"TEME","EPOCH":"2022-02-24T21:13:33.634848","MEAN_MOTION_DOT":"0.00000755","ECCENTRICITY":"0.00015490","RA_OF_ASC_NODE":"277.7961","MEAN_ANOMALY":"288.9396","ELEMENT_SET_NO":"999","NORAD_CAT_ID":"48555","INCLINATION":"53.0529","LAUNCH_DATE":"2021-05-15","MEAN_ELEMENT_THEORY":"SGP4","OBJECT_NAME":"STARLINK-2145","DECAY_DATE":null,"SEMIMAJOR_AXIS":"6925.353","COUNTRY_CODE":"US","OBJECT_TYPE":"PAYLOAD","APOAPSIS":"548.291","BSTAR":"0.00006956200000","CENTER_NAME":"EARTH","CLASSIFICATION_TYPE":"U","PERIOD":"95.592","SITE":"AFETR","PERIAPSIS":"546.146","FILE":"3320325"},{"TIME_SYSTEM":"UTC","REV_AT_EPOCH":"4291","TLE_LINE2":"2 48556  53.0542 278.1424 0001684  71.9980 288.1193 15.06389868 42912","OBJECT_ID":"2021-041D","MEAN_MOTION_DDOT":"0.0000000000000","ARG_OF_PERICENTER":"71.9980","REF_FRAME":"TEME","EPOCH":"2022-02-24T19:22:07.278816","MEAN_MOTION_DOT":"0.00000644","EPHEMERIS_TYPE":"0","TLE_LINE1":"1 48556U 21041D   22055.80702869  .00000644  00000-0  62164-4 0  9997","MEAN_MOTION":"15.06389868","RCS_SIZE":"LARGE","GP_ID":"196902045","ELEMENT_SET_NO":"999","INCLINATION":"53.0542","NORAD_CAT_ID":"48556","LAUNCH_DATE":"2021-05-15","MEAN_ELEMENT_THEORY":"SGP4","ECCENTRICITY":"0.00016840","RA_OF_ASC_NODE":"278.1424","MEAN_ANOMALY":"288.1193","COUNTRY_CODE":"US","OBJECT_TYPE":"PAYLOAD","APOAPSIS":"548.411","OBJECT_NAME":"STARLINK-2151","DECAY_DATE":null,"SEMIMAJOR_AXIS":"6925.380","PERIOD":"95.593","SITE":"AFETR","FILE":"3320325","PERIAPSIS":"546.078","BSTAR":"0.00006216400000","CLASSIFICATION_TYPE":"U","CENTER_NAME":"EARTH"},{"OBJECT_NAME":"STARLINK-2155","SEMIMAJOR_AXIS":"6925.394","DECAY_DATE":null,"COUNTRY_CODE":"US","OBJECT_TYPE":"PAYLOAD","APOAPSIS":"548.328","BSTAR":"0.00000403600000","CENTER_NAME":"EARTH","CLASSIFICATION_TYPE":"U","SITE":"AFETR","PERIOD":"95.593","PERIAPSIS":"546.191","FILE":"3320325","GP_ID":"196900793","EPHEMERIS_TYPE":"0","RCS_SIZE":"LARGE","TLE_LINE1":"1 48557U 21041E   22055.87797647 -.00000221  00000-0  40360-5 0  9990","MEAN_MOTION":"15.06385082","TLE_LINE2":"2 48557  53.0544 267.8280 0001543  79.2503 280.8659 15.06385082 43063","ARG_OF_PERICENTER":"79.2503","MEAN_MOTION_DDOT":"0.0000000000000","REF_FRAME":"TEME","OBJECT_ID":"2021-041E","TIME_SYSTEM":"UTC","REV_AT_EPOCH":"4306","EPOCH":"2022-02-24T21:04:17.167008","MEAN_MOTION_DOT":"-0.00000221","RA_OF_ASC_NODE":"267.8280","ECCENTRICITY":"0.00015430","MEAN_ANOMALY":"280.8659","LAUNCH_DATE":"2021-05-15","ELEMENT_SET_NO":"999","INCLINATION":"53.0544","NORAD_CAT_ID":"48557","MEAN_ELEMENT_THEORY":"SGP4"},{"CLASSIFICATION_TYPE":"U","CENTER_NAME":"EARTH","BSTAR":"0.00002512400000","FILE":"3320325","PERIAPSIS":"546.122","PERIOD":"95.593","SITE":"AFETR","DECAY_DATE":null,"SEMIMAJOR_AXIS":"6925.392","OBJECT_NAME":"STARLINK-2166","APOAPSIS":"548.392","OBJECT_TYPE":"PAYLOAD","COUNTRY_CODE":"US","MEAN_ANOMALY":"279.5133","ECCENTRICITY":"0.00016390","RA_OF_ASC_NODE":"267.8366","MEAN_ELEMENT_THEORY":"SGP4","NORAD_CAT_ID":"48558","INCLINATION":"53.0541","ELEMENT_SET_NO":"999","LAUNCH_DATE":"2021-05-15","RCS_SIZE":"LARGE","TLE_LINE1":"1 48558U 21041F   22055.87429551  .00000093  00000-0  25124-4 0  9993","MEAN_MOTION":"15.06385712","EPHEMERIS_TYPE":"0","GP_ID":"196901543","MEAN_MOTION_DOT":"0.00000093","EPOCH":"2022-02-24T20:58:59.132064","REV_AT_EPOCH":"4220","TIME_SYSTEM":"UTC","OBJECT_ID":"2021-041F","TLE_LINE2":"2 48558  53.0541 267.8366 0001639  80.6041 279.5133 15.06385712 42202","MEAN_MOTION_DDOT":"0.0000000000000","REF_FRAME":"TEME","ARG_OF_PERICENTER":"80.6041"},{"MEAN_ANOMALY":"290.6307","RA_OF_ASC_NODE":"267.9622","ECCENTRICITY":"0.00017400","MEAN_ELEMENT_THEORY":"SGP4","LAUNCH_DATE":"2021-05-15","NORAD_CAT_ID":"48559","INCLINATION":"53.0541","ELEMENT_SET_NO":"999","GP_ID":"196901795","TLE_LINE1":"1 48559U 21041G   22055.84386251  .00000226  00000-0  34089-4 0  9998","MEAN_MOTION":"15.06391984","RCS_SIZE":"LARGE","EPHEMERIS_TYPE":"0","MEAN_MOTION_DOT":"0.00000226","EPOCH":"2022-02-24T20:15:09.720864","TLE_LINE2":"2 48559  53.0541 267.9622 0001740  69.4868 290.6307 15.06391984 43053","REF_FRAME":"TEME","MEAN_MOTION_DDOT":"0.0000000000000","ARG_OF_PERICENTER":"69.4868","OBJECT_ID":"2021-041G","REV_AT_EPOCH":"4305","TIME_SYSTEM":"UTC","CENTER_NAME":"EARTH","CLASSIFICATION_TYPE":"U","BSTAR":"0.00003408900000","FILE":"3320325","PERIAPSIS":"546.033","SITE":"AFETR","PERIOD":"95.593","SEMIMAJOR_AXIS":"6925.373","DECAY_DATE":null,"OBJECT_NAME":"STARLINK-2167","APOAPSIS":"548.443","OBJECT_TYPE":"PAYLOAD","COUNTRY_CODE":"US"},{"CLASSIFICATION_TYPE":"U","CENTER_NAME":"EARTH","BSTAR":"0.00031885000000","PERIAPSIS":"546.170","FILE":"3320152","PERIOD":"95.592","SITE":"AFETR","DECAY_DATE":null,"SEMIMAJOR_AXIS":"6925.334","OBJECT_NAME":"STARLINK-2186","OBJECT_TYPE":"PAYLOAD","APOAPSIS":"548.228","COUNTRY_CODE":"US","MEAN_ANOMALY":"111.2630","ECCENTRICITY":"0.00014860","RA_OF_ASC_NODE":"237.2781","MEAN_ELEMENT_THEORY":"SGP4","ELEMENT_SET_NO":"999","INCLINATION":"53.0511","NORAD_CAT_ID":"48561","LAUNCH_DATE":"2021-05-15","EPHEMERIS_TYPE":"0","TLE_LINE1":"1 48561U 21041J   22056.00001157  .00004472  00000-0  31885-3 0  9996","MEAN_MOTION":"15.06404841","RCS_SIZE":"LARGE","GP_ID":"196876711","EPOCH":"2022-02-25T00:00:00.999648","MEAN_MOTION_DOT":"0.00004472","TIME_SYSTEM":"UTC","REV_AT_EPOCH":"4390","MEAN_MOTION_DDOT":"0.0000000000000","TLE_LINE2":"2 48561  53.0511 237.2781 0001486  81.1607 111.2630 15.06404841 43906","REF_FRAME":"TEME","OBJECT_ID":"2021-041J","ARG_OF_PERICENTER":"81.1607"},{"REV_AT_EPOCH":"4306","TIME_SYSTEM":"UTC","TLE_LINE2":"2 48562  53.0527 267.9413 0001401  93.9414 266.1735 15.06398044 43060","MEAN_MOTION_DDOT":"0.0000000000000","OBJECT_ID":"2021-041K","REF_FRAME":"TEME","ARG_OF_PERICENTER":"93.9414","MEAN_MOTION_DOT":"0.00000643","EPOCH":"2022-02-24T20:27:07.953696","TLE_LINE1":"1 48562U 21041K   22055.85217539  .00000643  00000-0  62065-4 0  9993","MEAN_MOTION":"15.06398044","RCS_SIZE":"LARGE","EPHEMERIS_TYPE":"0","GP_ID":"196902547","INCLINATION":"53.0527","NORAD_CAT_ID":"48562","ELEMENT_SET_NO":"999","LAUNCH_DATE":"2021-05-15","MEAN_ELEMENT_THEORY":"SGP4","ECCENTRICITY":"0.00014010","RA_OF_ASC_NODE":"267.9413","MEAN_ANOMALY":"266.1735","COUNTRY_CODE":"US","APOAPSIS":"548.190","OBJECT_TYPE":"PAYLOAD","OBJECT_NAME":"STARLINK-2187","DECAY_DATE":null,"SEMIMAJOR_AXIS":"6925.355","PERIOD":"95.592","SITE":"AFETR","FILE":"3320325","PERIAPSIS":"546.249","BSTAR":"0.00006206500000","CENTER_NAME":"EARTH","CLASSIFICATION_TYPE":"U"},{"MEAN_ELEMENT_THEORY":"SGP4","INCLINATION":"53.0537","NORAD_CAT_ID":"48563","ELEMENT_SET_NO":"999","LAUNCH_DATE":"2021-05-15","MEAN_ANOMALY":"282.7506","ECCENTRICITY":"0.00015030","RA_OF_ASC_NODE":"268.1584","MEAN_MOTION_DOT":"0.00000104","EPOCH":"2022-02-24T19:18:07.573248","REV_AT_EPOCH":"4305","TIME_SYSTEM":"UTC","TLE_LINE2":"2 48563  53.0537 268.1584 0001503  77.3651 282.7506 15.06393802 43052","MEAN_MOTION_DDOT":"0.0000000000000","REF_FRAME":"TEME","OBJECT_ID":"2021-041L","ARG_OF_PERICENTER":"77.3651","RCS_SIZE":"LARGE","TLE_LINE1":"1 48563U 21041L   22055.80425432  .00000104  00000-0  25913-4 0  9995","MEAN_MOTION":"15.06393802","EPHEMERIS_TYPE":"0","GP_ID":"196903297","PERIAPSIS":"546.192","FILE":"3320325","PERIOD":"95.593","SITE":"AFETR","CENTER_NAME":"EARTH","CLASSIFICATION_TYPE":"U","BSTAR":"0.00002591300000","APOAPSIS":"548.273","OBJECT_TYPE":"PAYLOAD","COUNTRY_CODE":"US","DECAY_DATE":null,"SEMIMAJOR_AXIS":"6925.368","OBJECT_NAME":"STARLINK-2188"},{"PERIOD":"95.592","SITE":"AFETR","FILE":"3320325","PERIAPSIS":"546.234","BSTAR":"0.00014255000000","CENTER_NAME":"EARTH","CLASSIFICATION_TYPE":"U","COUNTRY_CODE":"US","APOAPSIS":"548.194","OBJECT_TYPE":"PAYLOAD","OBJECT_NAME":"STARLINK-2190","DECAY_DATE":null,"SEMIMAJOR_AXIS":"6925.349","INCLINATION":"53.0539","NORAD_CAT_ID":"48564","ELEMENT_SET_NO":"999","LAUNCH_DATE":"2021-05-15","MEAN_ELEMENT_THEORY":"SGP4","ECCENTRICITY":"0.00014150","RA_OF_ASC_NODE":"267.8950","MEAN_ANOMALY":"287.6027","REV_AT_EPOCH":"4306","TIME_SYSTEM":"UTC","MEAN_MOTION_DDOT":"0.0000000000000","TLE_LINE2":"2 48564  53.0539 267.8950 0001415  72.5116 287.6027 15.06399718 43068","ARG_OF_PERICENTER":"72.5116","OBJECT_ID":"2021-041M","REF_FRAME":"TEME","MEAN_MOTION_DOT":"0.00001842","EPOCH":"2022-02-24T20:43:02.684064","RCS_SIZE":"LARGE","TLE_LINE1":"1 48564U 21041M   22055.86322551  .00001842  00000-0  14255-3 0  9996","MEAN_MOTION":"15.06399718","EPHEMERIS_TYPE":"0","GP_ID":"196903549"}];
